SL-16 R/B               
1 25400U 98043G   25343.57081076  .00000173  00000+0  91600-4 0  9996
2 25400  98.8120 291.3712 0008810 277.0903  82.9275 14.26024451426140
SL-16 R/B               
1 25407U 98045B   25343.51554985 -.00000139  00000+0 -46265-4 0  9994
2 25407  71.0122  11.2076 0007094 182.8298 177.2786 14.16175833414330
ISS (ZARYA)             
1 25544U 98067A   25343.50984768  .00014141  00000+0  26026-3 0  9993
2 25544  51.6310 158.4724 0003400 223.8185 136.2534 15.49447168542357
CZ-4B R/B               
1 25732U 99025C   25343.35288800  .00000142  00000+0  89738-4 0  9990
2 25732  98.6772  24.7086 0036189 243.9824 126.5056 14.18242373375360
OKEAN-O                 
1 25860U 99039A   25343.13909267  .00001190  00000+0  16363-3 0  9997
2 25860  97.9606  38.8718 0000790  90.1743 269.9559 14.80151028420994
SL-16 R/B               
1 25861U 99039B   25343.13763401  .00000997  00000+0  13359-3 0  9992
2 25861  98.0129  37.2885 0014642 186.4384 173.6643 14.81577920423459
DELTA 2 R/B             
1 25876U 99041E   25343.10227775  .00001223  00000+0  23672-3 0  9999
2 25876  51.7619 302.9663 0504750  81.0451 284.7245 14.11385999350233
HELIOS 1B               
1 25977U 99064A   25343.43957862  .00003424  00000+0  38635-3 0  9999
2 25977  98.1752 238.0073 0001891  47.3890 312.7484 14.87261392671845
TERRA                   
1 25994U 99068A   25343.67072497  .00000825  00000+0  17776-3 0  9995
2 25994  97.9753  35.4679 0003580 100.4123  59.1507 14.60896861381932
SL-16 R/B               
1 26070U 00006B   25343.29561152  .00000061  00000+0  55527-4 0  9993
2 26070  71.0032 287.8987 0018339 313.3879  46.5716 14.15810664335766
TITAN 4B R/B            
1 26474U 00047B   25343.42836087  .00005625  00000+0  35936-3 0  9995
2 26474  67.9903 294.1546 0039179 148.5722 211.7780 15.08742252379290
ENVISAT                 
1 27386U 02009A   25343.65905429  .00000275  00000+0  10286-3 0  9997
2 27386  98.3594 294.4777 0001140  82.1616  90.8271 14.38997564246225
